{
  "type": "FeatureCollection",
  "features": [
    {
      "type": "Feature",
      "properties": {
        "norad_id": 36036,
        "name": "SMOS",
        "group": "resource",
        "lat": -66.23819204155299,
        "lon": -161.40819349123416,
        "alt_km": 767.2140800634779,
        "timestamp": "2025-12-19T22:41:52.035856+00:00",
        "meta_object_name": "SMOS",
        "meta_object_id": "2009-059A",
        "meta_epoch": "2025-12-19T11:20:10.902624",
        "meta_mean_motion": 14.39746894,
        "meta_eccentricity": 0.0001083,
        "meta_inclination": 98.438,
        "meta_ra_of_asc_node": 178.4211,
        "meta_arg_of_pericenter": 82.411,
        "meta_mean_anomaly": 277.7201,
        "meta_ephemeris_type": 0,
        "meta_classification_type": "U",
        "meta_norad_cat_id": 36036,
        "meta_element_set_no": 999,
        "meta_rev_at_epoch": 84759,
        "meta_bstar": 0.00010424,
        "meta_mean_motion_dot": 2.83e-06,
        "meta_mean_motion_ddot": 0,
        "tle_line1": "1 36036U 09059A   25353.47234841  .00000283  00000+0  10424-3 0  9998",
        "tle_line2": "2 36036  98.4380 178.4211 0001083  82.4110 277.7201 14.39746894847598"
      },
      "geometry": {
        "type": "Point",
        "coordinates": [
          -161.40819349123416,
          -66.23819204155299
        ]
      }
    },
    {
      "type": "Feature",
      "properties": {
        "norad_id": 36110,
        "name": "YAOGAN-7",
        "group": "resource",
        "lat": 21.1930575397766,
        "lon": -127.46096046741164,
        "alt_km": 645.6569449588251,
        "timestamp": "2025-12-19T22:41:52.035866+00:00",
        "meta_object_name": "YAOGAN-7",
        "meta_object_id": "2009-069A",
        "meta_epoch": "2025-12-19T04:43:30.237600",
        "meta_mean_motion": 14.77741395,
        "meta_eccentricity": 0.0023351,
        "meta_inclination": 98.0297,
        "meta_ra_of_asc_node": 234.9307,
        "meta_arg_of_pericenter": 259.2514,
        "meta_mean_anomaly": 100.6067,
        "meta_ephemeris_type": 0,
        "meta_classification_type": "U",
        "meta_norad_cat_id": 36110,
        "meta_element_set_no": 999,
        "meta_rev_at_epoch": 86304,
        "meta_bstar": 7.003e-05,
        "meta_mean_motion_dot": 4.51e-06,
        "meta_mean_motion_ddot": 0,
        "tle_line1": "1 36110U 09069A   25353.19687775  .00000451  00000+0  70030-4 0  9996",
        "tle_line2": "2 36110  98.0297 234.9307 0023351 259.2514 100.6067 14.77741395863047"
      },
      "geometry": {
        "type": "Point",
        "coordinates": [
          -127.46096046741164,
          21.1930575397766
        ]
      }
    },
    {
      "type": "Feature",
      "properties": {
        "norad_id": 36605,
        "name": "TANDEM-X",
        "group": "resource",
        "lat": -77.07585611275395,
        "lon": 144.4837442242636,
        "alt_km": 516.9921256783173,
        "timestamp": "2025-12-19T22:41:52.035876+00:00",
        "meta_object_name": "TANDEM-X",
        "meta_object_id": "2010-030A",
        "meta_epoch": "2025-12-19T12:04:27.806304",
        "meta_mean_motion": 15.19152689,
        "meta_eccentricity": 0.0001806,
        "meta_inclination": 97.4444,
        "meta_ra_of_asc_node": 358.7845,
        "meta_arg_of_pericenter": 78.9569,
        "meta_mean_anomaly": 281.1868,
        "meta_ephemeris_type": 0,
        "meta_classification_type": "U",
        "meta_norad_cat_id": 36605,
        "meta_element_set_no": 999,
        "meta_rev_at_epoch": 85936,
        "meta_bstar": 3.4902e-05,
        "meta_mean_motion_dot": 6.66e-06,
        "meta_mean_motion_ddot": 0,
        "tle_line1": "1 36605U 10030A   25353.50309961  .00000666  00000+0  34902-4 0  9994",
        "tle_line2": "2 36605  97.4444 358.7845 0001806  78.9569 281.1868 15.19152689859365"
      },
      "geometry": {
        "type": "Point",
        "coordinates": [
          144.4837442242636,
          -77.07585611275395
        ]
      }
    },
    {
      "type": "Feature",
      "properties": {
        "norad_id": 36795,
        "name": "CARTOSAT-2B",
        "group": "resource",
        "lat": -25.740494584013142,
        "lon": 46.52411324136935,
        "alt_km": 637.5833311964852,
        "timestamp": "2025-12-19T22:41:52.035886+00:00",
        "meta_object_name": "CARTOSAT-2B",
        "meta_object_id": "2010-035A",
        "meta_epoch": "2025-12-19T17:56:34.753344",
        "meta_mean_motion": 14.78732825,
        "meta_eccentricity": 0.0012843,
        "meta_inclination": 97.7847,
        "meta_ra_of_asc_node": 42.5506,
        "meta_arg_of_pericenter": 55.7286,
        "meta_mean_anomaly": 304.514,
        "meta_ephemeris_type": 0,
        "meta_classification_type": "U",
        "meta_norad_cat_id": 36795,
        "meta_element_set_no": 999,
        "meta_rev_at_epoch": 83333,
        "meta_bstar": 2.9932e-05,
        "meta_mean_motion_dot": 1.7e-06,
        "meta_mean_motion_ddot": 0,
        "tle_line1": "1 36795U 10035A   25353.74762446  .00000170  00000+0  29932-4 0  9993",
        "tle_line2": "2 36795  97.7847  42.5506 0012843  55.7286 304.5140 14.78732825833331"
      },
      "geometry": {
        "type": "Point",
        "coordinates": [
          46.52411324136935,
          -25.740494584013142
        ]
      }
    },
    {
      "type": "Feature",
      "properties": {
        "norad_id": 36834,
        "name": "YAOGAN-10",
        "group": "resource",
        "lat": -26.988950454692663,
        "lon": -170.34935897182325,
        "alt_km": 621.1396963369989,
        "timestamp": "2025-12-19T22:41:52.035897+00:00",
        "meta_object_name": "YAOGAN-10",
        "meta_object_id": "2010-038A",
        "meta_epoch": "2025-12-19T19:18:34.339104",
        "meta_mean_motion": 14.84633898,
        "meta_eccentricity": 0.0001442,
        "meta_inclination": 97.9135,
        "meta_ra_of_asc_node": 13.5727,
        "meta_arg_of_pericenter": 78.969,
        "meta_mean_anomaly": 94.0899,
        "meta_ephemeris_type": 0,
        "meta_classification_type": "U",
        "meta_norad_cat_id": 36834,
        "meta_element_set_no": 999,
        "meta_rev_at_epoch": 83058,
        "meta_bstar": 0.00018776,
        "meta_mean_motion_dot": 1.533e-05,
        "meta_mean_motion_ddot": 0,
        "tle_line1": "1 36834U 10038A   25353.80456411  .00001533  00000+0  18776-3 0  9996",
        "tle_line2": "2 36834  97.9135  13.5727 0001442  78.9690  94.0899 14.84633898830582"
      },
      "geometry": {
        "type": "Point",
        "coordinates": [
          -170.34935897182325,
          -26.988950454692663
        ]
      }
    },
    {
      "type": "Feature",
      "properties": {
        "norad_id": 37216,
        "name": "COSMO-SKYMED 4",
        "group": "resource",
        "lat": 65.0567106551139,
        "lon": 157.8359019368386,
        "alt_km": 615.2658514431596,
        "timestamp": "2025-12-19T22:41:52.035907+00:00",
        "meta_object_name": "COSMO-SKYMED 4",
        "meta_object_id": "2010-060A",
        "meta_epoch": "2025-12-19T19:09:34.053120",
        "meta_mean_motion": 14.82152888,
        "meta_eccentricity": 0.0001386,
        "meta_inclination": 97.8798,
        "meta_ra_of_asc_node": 175.0147,
        "meta_arg_of_pericenter": 83.4731,
        "meta_mean_anomaly": 276.664,
        "meta_ephemeris_type": 0,
        "meta_classification_type": "U",
        "meta_norad_cat_id": 37216,
        "meta_element_set_no": 999,
        "meta_rev_at_epoch": 81799,
        "meta_bstar": 8.4422e-05,
        "meta_mean_motion_dot": 6.2e-06,
        "meta_mean_motion_ddot": 0,
        "tle_line1": "1 37216U 10060A   25353.79831080  .00000620  00000+0  84422-4 0  9991",
        "tle_line2": "2 37216  97.8798 175.0147 0001386  83.4731 276.6640 14.82152888817990"
      },
      "geometry": {
        "type": "Point",
        "coordinates": [
          157.8359019368386,
          65.0567106551139
        ]
      }
    },
    {
      "type": "Feature",
      "properties": {
        "norad_id": 37387,
        "name": "RESOURCESAT-2",
        "group": "resource",
        "lat": -78.82541008719005,
        "lon": -174.06898398278904,
        "alt_km": 829.4731517142545,
        "timestamp": "2025-12-19T22:41:52.035917+00:00",
        "meta_object_name": "RESOURCESAT-2",
        "meta_object_id": "2011-015A",
        "meta_epoch": "2025-12-19T16:23:46.644000",
        "meta_mean_motion": 14.21599878,
        "meta_eccentricity": 0.0006106,
        "meta_inclination": 98.7869,
        "meta_ra_of_asc_node": 57.2036,
        "meta_arg_of_pericenter": 24.011,
        "meta_mean_anomaly": 336.1351,
        "meta_ephemeris_type": 0,
        "meta_classification_type": "U",
        "meta_norad_cat_id": 37387,
        "meta_element_set_no": 999,
        "meta_rev_at_epoch": 76067,
        "meta_bstar": 6.7659e-05,
        "meta_mean_motion_dot": 1.04e-06,
        "meta_mean_motion_ddot": 0,
        "tle_line1": "1 37387U 11015A   25353.68317875  .00000104  00000+0  67659-4 0  9990",
        "tle_line2": "2 37387  98.7869  57.2036 0006106  24.0110 336.1351 14.21599878760673"
      },
      "geometry": {
        "type": "Point",
        "coordinates": [
          -174.06898398278904,
          -78.82541008719005
        ]
      }
    }
  ]
}